BEIJING 1               
1 28890U 05043A   20046.18406456  .00000058  00000-0  21081-4 0  9994
2 28890  98.0102 178.7100 0014571 334.9873  25.0645 14.61280348762518
HJ-1A                   
1 33320U 08041A   20046.11041953 -.00000276  00000-0 -31797-4 0  9998
2 33320  97.8064 102.2284 0026336 114.2723 246.1250 14.77060938616396
HJ-1B                   
1 33321U 08041B   20046.11911889  .00000105  00000-0  21824-4 0  9992
2 33321  97.8143 104.3852 0035833 136.5088 223.8980 14.77198996616390
YAOGAN 4                
1 33446U 08061A   20046.04749757  .00000075  00000-0  17538-4 0  9990
2 33446  97.7105   6.9345 0016775  25.3595 334.8435 14.77006682603610
DEIMOS-1                
1 35681U 09041A   20046.23770499 -.00000041  00000-0  97463-6 0  9991
2 35681  97.8292 284.5137 0002937  86.9085 273.2460 14.71820122566266
UK-DMC 2                
1 35683U 09041C   20046.20718190 -.00000153  00000-0 -17403-4 0  9999
2 35683  97.7098 255.3575 0001764  96.2959 263.8439 14.71131727566058
RISAT 1                 
1 38248U 12017A   20046.12869530  .00000154  00000-0  13377-4 0  9997
2 38248  97.5691  56.8513 0003156 326.5480  33.5550 15.09991281430020
DMC3-FM1                
1 40715U 15032A   20046.21951904  .00000014  00000-0  97727-5 0  9993
2 40715  97.9482 302.4872 0014259 260.4992  99.4604 14.73684967247502
DMC3-FM2                
1 40716U 15032B   20046.17388385  .00000031  00000-0  12409-4 0  9998
2 40716  97.9502 302.7607 0011592 270.7473  89.2404 14.73683449247509
DMC3-FM3                
1 40717U 15032C   20046.19698143  .00000024  00000-0  11298-4 0  9994
2 40717  97.9510 303.4895 0015248 261.6260  98.3222 14.73689361247509
